#aV2021  3 26  0  0  0.00000000     288 DD+AD WGS84 FIT  NGA
## 2150 432000.00000000   300.00000000 59299 0.0000000000000
+   32     1  2  3  4  5  6  7  8  9 10 11 12 13 14 15 16 17
+         18 19 20 21 22 23 24 25 26 27 28 29 30 31 32  0  0
+          0  0  0  0  0  0  0  0  0  0  0  0  0  0  0  0  0
+          0  0  0  0  0  0  0  0  0  0  0  0  0  0  0  0  0
+          0  0  0  0  0  0  0  0  0  0  0  0  0  0  0  0  0
++         2  2  2  2  2  2  2  2  2  2  2  2  2  2  2  2  2
++         2  2  2  2  2  2  2  2  2  2  2  2  2  2  2  0  0
++         0  0  0  0  0  0  0  0  0  0  0  0  0  0  0  0  0
++         0  0  0  0  0  0  0  0  0  0  0  0  0  0  0  0  0
++         0  0  0  0  0  0  0  0  0  0  0  0  0  0  0  0  0
%c cc cc ccc ccc cccc cccc cccc cccc ccccc ccccc ccccc ccccc
%c cc cc ccc ccc cccc cccc cccc cccc ccccc ccccc ccccc ccccc
%f  0.0000000  0.000000000  0.00000000000  0.000000000000000
%f  0.0000000  0.000000000  0.00000000000  0.000000000000000
%i    0    0    0    0      0      0      0      0         0
%i    0    0    0    0      0      0      0      0         0
/*      NGA, ST. LOUIS,MO.                                  
/*   EPHEMERIS COMPUTED FROM 2 DAYS OF DATA                 
/*   EPOCHA v5 SMOOTHER                                     
/*   G2139 IERS2010 SATAF SATAPC                            
*  2021  3 26  2 45  0.00000000
P  1  12076.519593  13456.364358 -19824.029473    732.474642                    
V  1 -24471.681818    188.863829 -14631.150715     -0.091962                    
P  2  13245.272786 -14020.268929  18935.772720   -589.667961                    
V  2  22710.868659   -133.038748 -16529.138837     -0.036198                    
P  3  12922.319109  23273.463274   -145.773056   -118.488017                    
V  3  -2215.268020   1138.508803 -31848.485643     -0.108144                    
P  4   3561.555949  18577.364739  18630.393059   -188.328587                    
V  4 -14015.141992  19122.958454 -16446.798313     -0.021698                    
P  5   -511.260101 -21560.521639  15231.655805    -37.252470                    
V  5  12193.234232  15637.222048  22504.522805     -0.010798                    
P  6  23788.151910  -6394.677859  10076.089197      2.915818                    
V  6  12627.133188   1986.062390 -28672.167847      0.022453                    
P  7  23725.490530   7715.974434  10133.917564    101.867819                    
V  7 -12278.231184   2029.014797  27667.668353      0.120983                    
P  8  -2604.872518  22779.357837 -13140.046629    -15.116501                    
V  8 -10311.535986  13443.106425  25648.843428     -0.014341                    
P  9  12609.410114   8812.737697  21590.976832   -334.047203                    
V  9 -13840.973581  23859.281788  -1672.988651     -0.029422                    
P 10 -16942.857784  -1545.796446 -20349.351568    -88.691772                    
V 10 -12050.636832 -23057.860804  11460.162920     -0.078786                    
P 11   6050.324233  15325.896156 -21297.718697     11.495721                    
V 11 -23354.255402  11872.097942   1576.834193      0.106393                    
P 12  -9020.155276 -24853.211334  -3546.776168    -19.118165                    
V 12   3778.964792   2825.784795 -31528.583453     -0.052671                    
P 13  12215.667541 -22651.759900  -6423.284158    112.189645                    
V 13   6951.074910  -4714.079720  30601.098087      0.044636                    
P 14  17247.507117   2985.327193 -19994.110317     99.307485                    
V 14  10375.122641  23175.653501  12399.552819     -0.010911                    
P 15   -666.897180 -22949.410498 -13400.227608   -160.606476                    
V 15   9673.640541 -13917.733101  24355.523217      0.025919                    
P 16  -3952.364885  19544.419123  17061.842221   -299.692326                    
V 16 -10778.043215 -19599.802375  20125.220330     -0.058495                    
P 17  18872.068962  -8658.528273 -16133.605100    415.806416                    
V 17 -10636.850416  18457.335332 -21776.293432      0.062836                    
P 18 -25212.044214  -5366.475688   6526.103809    351.187110                    
V 18   8354.023947  -2163.807739  30408.982199      0.005325                    
P 19  19602.194019 -14826.889644 -10220.570882    -21.470333                    
V 19  -5973.732216  11223.699157 -28629.321609      0.049980                    
P 20 -19887.908196 -15631.559204  -8524.124380    523.831628                    
V 20  -4122.387154 -10400.153813  28488.564063     -0.003979                    
P 21   3934.653765  14670.262993 -21100.187659    106.043563                    
V 21 -28432.903069   1900.576857  -3402.595639      0.029415                    
P 22   8300.648010  23592.675227  -9003.906842   -652.451318                    
V 22  -9333.790971  -7757.614168 -28127.835767      0.083164                    
P 23 -18812.704554 -12270.569928 -14228.872372    116.405634                    
V 23  -7450.019414 -16527.012133  24094.054930     -0.013651                    
P 24  -6585.303500 -15191.149944 -21070.961541      0.598412                    
V 24  26158.603752  -2022.909575  -6401.674719     -0.004948                    
P 25 -17201.177788 -18420.528898   8547.754760    106.076814                    
V 25  -3349.445117 -10895.406524 -29047.997080      0.073849                    
P 26 -10734.134534  11842.386200  21126.374619     63.247792                    
V 26 -14815.054155 -22655.250748   5422.824860      0.052725                    
P 27 -11953.093066  23378.518154  -2458.610897   -100.901289                    
V 27  -3745.253115   1202.646507  32147.783631     -0.070562                    
P 28  15808.876325    842.600264 -20736.698775    596.601601                    
V 28  10417.325606  25606.057243   8934.007947     -0.057613                    
P 29 -11794.918262  -8730.219475  22093.094875   -318.541724                    
V 29  16101.010527 -23019.195950   -538.984193     -0.068306                    
P 30  26557.575549   -764.900891  -2452.471514   -403.750931                    
V 30   3031.937956   3468.145362  30869.717144     -0.054312                    
P 31 -22563.695803   7694.069615  12103.322291   -107.787998                    
V 31 -15242.373946  -2725.557618 -26046.551544     -0.022652                    
P 32 -18720.487539  10697.373509 -15292.614639     21.713694                    
V 32   8028.486132 -18104.745005 -22507.441778      0.004248                    
EOF
